[
  {
    "OBJECT_NAME": "STARLINK-32463",
    "OBJECT_ID": "24222S",
    "EPOCH": "2025-11-11T02:12:14.221728",
    "MEAN_MOTION": 15.27610059,
    "ECCENTRICITY": 0.0001336,
    "INCLINATION": 43.0023,
    "RA_OF_ASC_NODE": 85.7295,
    "ARG_OF_PERICENTER": 277.0246,
    "MEAN_ANOMALY": 83.0453,
    "EPHEMERIS_TYPE": 0,
    "CLASSIFICATION_TYPE": "U",
    "NORAD_CAT_ID": 62130,
    "ELEMENT_SET_NO": 999,
    "REV_AT_EPOCH": 5461,
    "BSTAR": 0.0014632,
    "MEAN_MOTION_DOT": 0.0004026,
    "MEAN_MOTION_DDOT": 0.0,
    "TLE_LINE1": "1 62130U 24222S   25315.09183127  .00040260  00000+0  14632-2 0  9990",
    "TLE_LINE2": "2 62130  43.0023  85.7295 0001336 277.0246  83.0453 15.27610059 54618",
    "COMMENT": "Grouped by shell and plane from TLE"
  },
  {
    "OBJECT_NAME": "STARLINK-32550",
    "OBJECT_ID": "24222T",
    "EPOCH": "2025-11-11T01:29:52.853856",
    "MEAN_MOTION": 15.27618909,
    "ECCENTRICITY": 0.0003049,
    "INCLINATION": 43.0011,
    "RA_OF_ASC_NODE": 86.3679,
    "ARG_OF_PERICENTER": 281.3498,
    "MEAN_ANOMALY": 78.7011,
    "EPHEMERIS_TYPE": 0,
    "CLASSIFICATION_TYPE": "U",
    "NORAD_CAT_ID": 62131,
    "ELEMENT_SET_NO": 999,
    "REV_AT_EPOCH": 5465,
    "BSTAR": 0.00095445,
    "MEAN_MOTION_DOT": 0.00026128,
    "MEAN_MOTION_DDOT": 0.0,
    "TLE_LINE1": "1 62131U 24222T   25315.06241729  .00026128  00000+0  95445-3 0  9990",
    "TLE_LINE2": "2 62131  43.0011  86.3679 0003049 281.3498  78.7011 15.27618909 54656",
    "COMMENT": "Grouped by shell and plane from TLE"
  },
  {
    "OBJECT_NAME": "STARLINK-32507",
    "OBJECT_ID": "24222U",
    "EPOCH": "2025-11-10T16:26:56.314464",
    "MEAN_MOTION": 15.276365,
    "ECCENTRICITY": 8.79e-05,
    "INCLINATION": 43.0019,
    "RA_OF_ASC_NODE": 87.8432,
    "ARG_OF_PERICENTER": 298.8587,
    "MEAN_ANOMALY": 61.2176,
    "EPHEMERIS_TYPE": 0,
    "CLASSIFICATION_TYPE": "U",
    "NORAD_CAT_ID": 62132,
    "ELEMENT_SET_NO": 999,
    "REV_AT_EPOCH": 5440,
    "BSTAR": 0.0018992999999999998,
    "MEAN_MOTION_DOT": 0.00052464,
    "MEAN_MOTION_DDOT": 0.0,
    "TLE_LINE1": "1 62132U 24222U   25314.68537401  .00052464  00000+0  18993-2 0  9997",
    "TLE_LINE2": "2 62132  43.0019  87.8432 0000879 298.8587  61.2176 15.27636500 54407",
    "COMMENT": "Grouped by shell and plane from TLE"
  },
  {
    "OBJECT_NAME": "STARLINK-32245",
    "OBJECT_ID": "24222V",
    "EPOCH": "2025-11-10T15:44:34.778976",
    "MEAN_MOTION": 15.27612098,
    "ECCENTRICITY": 0.0002144,
    "INCLINATION": 43.0004,
    "RA_OF_ASC_NODE": 88.4744,
    "ARG_OF_PERICENTER": 274.134,
    "MEAN_ANOMALY": 85.9267,
    "EPHEMERIS_TYPE": 0,
    "CLASSIFICATION_TYPE": "U",
    "NORAD_CAT_ID": 62133,
    "ELEMENT_SET_NO": 999,
    "REV_AT_EPOCH": 5470,
    "BSTAR": 0.00041838,
    "MEAN_MOTION_DOT": 0.0001128,
    "MEAN_MOTION_DDOT": 0.0,
    "TLE_LINE1": "1 62133U 24222V   25314.65595809  .00011280  00000+0  41838-3 0  9997",
    "TLE_LINE2": "2 62133  43.0004  88.4744 0002144 274.1340  85.9267 15.27612098 54709",
    "COMMENT": "Grouped by shell and plane from TLE"
  },
  {
    "OBJECT_NAME": "STARLINK-32546",
    "OBJECT_ID": "24222W",
    "EPOCH": "2025-11-11T01:23:11.615712",
    "MEAN_MOTION": 15.27591256,
    "ECCENTRICITY": 0.0001015,
    "INCLINATION": 43.003,
    "RA_OF_ASC_NODE": 82.8776,
    "ARG_OF_PERICENTER": 288.6053,
    "MEAN_ANOMALY": 71.4689,
    "EPHEMERIS_TYPE": 0,
    "CLASSIFICATION_TYPE": "U",
    "NORAD_CAT_ID": 62134,
    "ELEMENT_SET_NO": 999,
    "REV_AT_EPOCH": 5453,
    "BSTAR": 0.00083036,
    "MEAN_MOTION_DOT": 0.00022666,
    "MEAN_MOTION_DDOT": 0.0,
    "TLE_LINE1": "1 62134U 24222W   25315.05777333  .00022666  00000+0  83036-3 0  9993",
    "TLE_LINE2": "2 62134  43.0030  82.8776 0001015 288.6053  71.4689 15.27591256 54530",
    "COMMENT": "Grouped by shell and plane from TLE"
  },
  {
    "OBJECT_NAME": "STARLINK-32545",
    "OBJECT_ID": "24222X",
    "EPOCH": "2025-11-11T01:46:32.632320",
    "MEAN_MOTION": 15.27612001,
    "ECCENTRICITY": 0.0001302,
    "INCLINATION": 43.0011,
    "RA_OF_ASC_NODE": 86.4567,
    "ARG_OF_PERICENTER": 273.9774,
    "MEAN_ANOMALY": 86.0929,
    "EPHEMERIS_TYPE": 0,
    "CLASSIFICATION_TYPE": "U",
    "NORAD_CAT_ID": 62135,
    "ELEMENT_SET_NO": 999,
    "REV_AT_EPOCH": 5465,
    "BSTAR": 0.0015853,
    "MEAN_MOTION_DOT": 0.00043664,
    "MEAN_MOTION_DDOT": 0.0,
    "TLE_LINE1": "1 62135U 24222X   25315.07398880  .00043664  00000+0  15853-2 0  9994",
    "TLE_LINE2": "2 62135  43.0011  86.4567 0001302 273.9774  86.0929 15.27612001 54658",
    "COMMENT": "Grouped by shell and plane from TLE"
  },
  {
    "OBJECT_NAME": "STARLINK-32554",
    "OBJECT_ID": "24222Y",
    "EPOCH": "2025-11-10T15:29:47.809536",
    "MEAN_MOTION": 15.27601628,
    "ECCENTRICITY": 0.000143,
    "INCLINATION": 43.0015,
    "RA_OF_ASC_NODE": 88.3979,
    "ARG_OF_PERICENTER": 267.3532,
    "MEAN_ANOMALY": 92.7156,
    "EPHEMERIS_TYPE": 0,
    "CLASSIFICATION_TYPE": "U",
    "NORAD_CAT_ID": 62136,
    "ELEMENT_SET_NO": 999,
    "REV_AT_EPOCH": 5459,
    "BSTAR": 0.0012559000000000001,
    "MEAN_MOTION_DOT": 0.00034481,
    "MEAN_MOTION_DDOT": 0.0,
    "TLE_LINE1": "1 62136U 24222Y   25314.64569224  .00034481  00000+0  12559-2 0  9996",
    "TLE_LINE2": "2 62136  43.0015  88.3979 0001430 267.3532  92.7156 15.27601628 54594",
    "COMMENT": "Grouped by shell and plane from TLE"
  },
  {
    "OBJECT_NAME": "STARLINK-32570",
    "OBJECT_ID": "24222Z",
    "EPOCH": "2025-11-10T15:39:02.911392",
    "MEAN_MOTION": 15.27598889,
    "ECCENTRICITY": 0.000166,
    "INCLINATION": 43.0006,
    "RA_OF_ASC_NODE": 88.4461,
    "ARG_OF_PERICENTER": 265.7907,
    "MEAN_ANOMALY": 94.2755,
    "EPHEMERIS_TYPE": 0,
    "CLASSIFICATION_TYPE": "U",
    "NORAD_CAT_ID": 62137,
    "ELEMENT_SET_NO": 999,
    "REV_AT_EPOCH": 5469,
    "BSTAR": 0.0016716,
    "MEAN_MOTION_DOT": 0.0004605,
    "MEAN_MOTION_DDOT": 0.0,
    "TLE_LINE1": "1 62137U 24222Z   25314.65211703  .00046050  00000+0  16716-2 0  9998",
    "TLE_LINE2": "2 62137  43.0006  88.4461 0001660 265.7907  94.2755 15.27598889 54692",
    "COMMENT": "Grouped by shell and plane from TLE"
  },
  {
    "OBJECT_NAME": "STARLINK-32917",
    "OBJECT_ID": "25027Q",
    "EPOCH": "2025-11-10T18:20:59.488224",
    "MEAN_MOTION": 15.27645304,
    "ECCENTRICITY": 0.0001858,
    "INCLINATION": 43.0025,
    "RA_OF_ASC_NODE": 80.5479,
    "ARG_OF_PERICENTER": 296.4743,
    "MEAN_ANOMALY": 63.5918,
    "EPHEMERIS_TYPE": 0,
    "CLASSIFICATION_TYPE": "U",
    "NORAD_CAT_ID": 62921,
    "ELEMENT_SET_NO": 999,
    "REV_AT_EPOCH": 4335,
    "BSTAR": 0.0017889,
    "MEAN_MOTION_DOT": 0.00049395,
    "MEAN_MOTION_DDOT": 0.0,
    "TLE_LINE1": "1 62921U 25027Q   25314.76457741  .00049395  00000+0  17889-2 0  9996",
    "TLE_LINE2": "2 62921  43.0025  80.5479 0001858 296.4743  63.5918 15.27645304 43350",
    "COMMENT": "Grouped by shell and plane from TLE"
  },
  {
    "OBJECT_NAME": "STARLINK-32916",
    "OBJECT_ID": "25027R",
    "EPOCH": "2025-11-10T18:06:09.985536",
    "MEAN_MOTION": 15.27597287,
    "ECCENTRICITY": 0.0001815,
    "INCLINATION": 43.0054,
    "RA_OF_ASC_NODE": 80.4652,
    "ARG_OF_PERICENTER": 272.8126,
    "MEAN_ANOMALY": 87.2518,
    "EPHEMERIS_TYPE": 0,
    "CLASSIFICATION_TYPE": "U",
    "NORAD_CAT_ID": 62922,
    "ELEMENT_SET_NO": 999,
    "REV_AT_EPOCH": 4335,
    "BSTAR": 0.0012354,
    "MEAN_MOTION_DOT": 0.00033908,
    "MEAN_MOTION_DDOT": 0.0,
    "TLE_LINE1": "1 62922U 25027R   25314.75428224  .00033908  00000+0  12354-2 0  9995",
    "TLE_LINE2": "2 62922  43.0054  80.4652 0001815 272.8126  87.2518 15.27597287 43356",
    "COMMENT": "Grouped by shell and plane from TLE"
  },
  {
    "OBJECT_NAME": "STARLINK-32871",
    "OBJECT_ID": "25027T",
    "EPOCH": "2025-11-10T18:15:25.163424",
    "MEAN_MOTION": 15.27621547,
    "ECCENTRICITY": 0.0002028,
    "INCLINATION": 43.0032,
    "RA_OF_ASC_NODE": 80.5133,
    "ARG_OF_PERICENTER": 274.7888,
    "MEAN_ANOMALY": 85.2732,
    "EPHEMERIS_TYPE": 0,
    "CLASSIFICATION_TYPE": "U",
    "NORAD_CAT_ID": 62924,
    "ELEMENT_SET_NO": 999,
    "REV_AT_EPOCH": 4335,
    "BSTAR": 0.0014113,
    "MEAN_MOTION_DOT": 0.0003883,
    "MEAN_MOTION_DDOT": 0.0,
    "TLE_LINE1": "1 62924U 25027T   25314.76070791  .00038830  00000+0  14113-2 0  9994",
    "TLE_LINE2": "2 62924  43.0032  80.5133 0002028 274.7888  85.2732 15.27621547 43355",
    "COMMENT": "Grouped by shell and plane from TLE"
  },
  {
    "OBJECT_NAME": "STARLINK-32920",
    "OBJECT_ID": "25027U",
    "EPOCH": "2025-11-10T16:35:42.893952",
    "MEAN_MOTION": 15.27603916,
    "ECCENTRICITY": 0.0001784,
    "INCLINATION": 43.0009,
    "RA_OF_ASC_NODE": 80.8524,
    "ARG_OF_PERICENTER": 272.152,
    "MEAN_ANOMALY": 87.9127,
    "EPHEMERIS_TYPE": 0,
    "CLASSIFICATION_TYPE": "U",
    "NORAD_CAT_ID": 62925,
    "ELEMENT_SET_NO": 999,
    "REV_AT_EPOCH": 4334,
    "BSTAR": 0.00076755,
    "MEAN_MOTION_DOT": 0.00020935,
    "MEAN_MOTION_DDOT": 0.0,
    "TLE_LINE1": "1 62925U 25027U   25314.69146868  .00020935  00000+0  76755-3 0  9994",
    "TLE_LINE2": "2 62925  43.0009  80.8524 0001784 272.1520  87.9127 15.27603916 43346",
    "COMMENT": "Grouped by shell and plane from TLE"
  },
  {
    "OBJECT_NAME": "STARLINK-32891",
    "OBJECT_ID": "25027W",
    "EPOCH": "2025-11-10T17:07:12.360864",
    "MEAN_MOTION": 15.27571122,
    "ECCENTRICITY": 0.0001638,
    "INCLINATION": 43.0006,
    "RA_OF_ASC_NODE": 81.022,
    "ARG_OF_PERICENTER": 282.6529,
    "MEAN_ANOMALY": 77.414,
    "EPHEMERIS_TYPE": 0,
    "CLASSIFICATION_TYPE": "U",
    "NORAD_CAT_ID": 62927,
    "ELEMENT_SET_NO": 999,
    "REV_AT_EPOCH": 4346,
    "BSTAR": 0.0013175,
    "MEAN_MOTION_DOT": 0.0003616,
    "MEAN_MOTION_DDOT": 0.0,
    "TLE_LINE1": "1 62927U 25027W   25314.71333751  .00036160  00000+0  13175-2 0  9991",
    "TLE_LINE2": "2 62927  43.0006  81.0220 0001638 282.6529  77.4140 15.27571122 43469",
    "COMMENT": "Grouped by shell and plane from TLE"
  }
]